NORAD_CAT_ID,OBJECT_NAME,OBJECT_TYPE,EPOCH,MEAN_MOTION,ECCENTRICITY,INCLINATION,RA_OF_ASC_NODE,ARG_OF_PERICENTER,MEAN_ANOMALY,BSTAR,MEAN_MOTION_DOT,MEAN_MOTION_DDOT,TLE_LINE0,TLE_LINE1,TLE_LINE2,SEMIMAJOR_AXIS,PERIOD,APOGEE,PERIGEE,DECAYED
52487.0,STARLINK-3902,PAYLOAD,2024-03-26 04:23:40,15.08816074,0.0001616,53.2181,12.2792,93.3023,266.8154,-0.00039087,-6.499e-05,0.0,0 STARLINK-3902,1 52487U 22049AN  24086.18310958 -.00006499  00000-0 -39087-3 0  9998,2 52487  53.2181  12.2792 0001616  93.3023 266.8154 15.08816074104833,6917.954,95.439,540.936,538.701,0.0
52487.0,STARLINK-3902,PAYLOAD,2024-03-26 12:20:36,15.08820325,0.0001522,53.2194,10.7944,85.1819,274.9347,-0.00028364,-4.797e-05,0.0,0 STARLINK-3902,1 52487U 22049AN  24086.51431212 -.00004797  00000-0 -28364-3 0  9997,2 52487  53.2194  10.7944 0001522  85.1819 274.9347 15.08820325105960,6917.941,95.439,540.858,538.753,0.0
52487.0,STARLINK-3902,PAYLOAD,2024-03-27 12:11:23,15.08852438,0.0001887,53.22,6.3335,87.4471,272.6737,0.00048254,7.402e-05,0.0,0 STARLINK-3902,1 52487U 22049AN  24087.50790567  .00007402  00000-0  48254-3 0  9992,2 52487  53.2200   6.3335 0001887  87.4471 272.6737 15.08852438105032,6917.842,95.437,541.013,538.402,0.0
52487.0,STARLINK-3902,PAYLOAD,2024-03-27 21:43:41,15.08826408,0.0001639,53.2194,4.5495,91.8662,268.2518,0.00054715,8.427e-05,0.0,0 STARLINK-3902,1 52487U 22049AN  24087.90534652  .00008427  00000-0  54715-3 0  9994,2 52487  53.2194   4.5495 0001639  91.8662 268.2518 15.08826408105099,6917.922,95.438,540.921,538.653,0.0
52487.0,STARLINK-3902,PAYLOAD,2024-03-28 00:54:28,15.08829688,0.0001627,53.2197,3.9553,90.5861,269.5317,0.00054161,8.34e-05,0.0,0 STARLINK-3902,1 52487U 22049AN  24088.03782625  .00008340  00000-0  54161-3 0  9993,2 52487  53.2197   3.9553 0001627  90.5861 269.5317 15.08829688106190,6917.912,95.438,540.902,538.651,0.0
52487.0,STARLINK-3902,PAYLOAD,2024-03-28 18:23:41,15.08856216,0.0001665,53.2196,0.6843,88.9321,271.1862,0.00012651,1.727e-05,0.0,0 STARLINK-3902,1 52487U 22049AN  24088.76645671  .00001727  00000-0  12651-3 0  9992,2 52487  53.2196   0.6843 0001665  88.9321 271.1862 15.08856216105223,6917.831,95.437,540.848,538.544,0.0
52487.0,STARLINK-3902,PAYLOAD,2024-03-28 23:09:51,15.08851246,0.0001332,53.2193,359.7915,98.424,261.6903,0.00011813,1.593e-05,0.0,0 STARLINK-3902,1 52487U 22049AN  24088.96517827  .00001593  00000-0  11813-3 0  9995,2 52487  53.2193 359.7915 0001332  98.4240 261.6903 15.08851246106336,6917.846,95.437,540.632,538.79,0.0
52487.0,STARLINK-3902,PAYLOAD,2024-03-29 03:56:01,15.08850146,0.0001571,53.2187,358.8981,92.914,267.2032,-1.2547e-05,-4.88e-06,0.0,0 STARLINK-3902,1 52487U 22049AN  24089.16390049 -.00000488  00000-0 -12547-4 0  9993,2 52487  53.2187 358.8981 0001571  92.9140 267.2032 15.08850146105281,6917.849,95.437,540.801,538.628,0.0
52487.0,STARLINK-3902,PAYLOAD,2024-03-29 23:00:38,15.08845469,0.0001531,53.2185,355.3289,104.5758,255.5404,-5.0667e-05,-1.094e-05,0.0,0 STARLINK-3902,1 52487U 22049AN  24089.95877765 -.00001094  00000-0 -50667-4 0  9994,2 52487  53.2185 355.3289 0001531 104.5758 255.5404 15.08845469106481,6917.864,95.437,540.788,538.67,0.0
52487.0,STARLINK-3902,PAYLOAD,2024-03-30 10:08:19,15.08842083,0.0001532,53.2192,353.2522,99.2148,260.9017,0.00017577,2.511e-05,0.0,0 STARLINK-3902,1 52487U 22049AN  24090.42245276  .00002511  00000-0  17577-3 0  9999,2 52487  53.2192 353.2522 0001532  99.2148 260.9017 15.08842083105477,6917.874,95.437,540.799,538.679,0.0
52487.0,STARLINK-3902,PAYLOAD,2024-03-30 21:16:02,15.08828174,0.0001416,53.2203,351.1768,104.1011,256.0138,2.8982e-05,1.73e-06,0.0,0 STARLINK-3902,1 52487U 22049AN  24090.88614410  .00000173  00000-0  28982-4 0  9994,2 52487  53.2203 351.1768 0001416 104.1011 256.0138 15.08828174105548,6917.917,95.438,540.761,538.802,0.0
52487.0,STARLINK-3902,PAYLOAD,2024-03-30 22:51:25,15.08829079,0.0001471,53.2202,350.8794,104.9676,255.1479,2.3618e-05,8.8e-07,0.0,0 STARLINK-3902,1 52487U 22049AN  24090.95238406  .00000088  00000-0  23618-4 0  9995,2 52487  53.2202 350.8794 0001471 104.9676 255.1479 15.08829079106632,6917.914,95.438,540.796,538.761,0.0
52487.0,STARLINK-3902,PAYLOAD,2024-03-31 09:59:07,15.08843708,0.0001511,53.2204,348.7928,106.1013,254.0146,2.9254e-05,1.78e-06,0.0,0 STARLINK-3902,1 52487U 22049AN  24091.41605498  .00000178  00000-0  29254-4 0  9998,2 52487  53.2204 348.7928 0001511 106.1013 254.0146 15.08843708105625,6917.869,95.437,540.779,538.689,0.0
52487.0,STARLINK-3902,PAYLOAD,2024-03-31 21:06:49,15.08838019,0.0001491,53.2202,346.7112,97.7212,262.395,6.2762e-05,7.11e-06,0.0,0 STARLINK-3902,1 52487U 22049AN  24091.87973847  .00000711  00000-0  62762-4 0  9998,2 52487  53.2202 346.7112 0001491  97.7212 262.3950 15.08838019106770,6917.886,95.438,540.783,538.72,0.0
52487.0,STARLINK-3902,PAYLOAD,2024-04-01 00:17:35,15.08841595,0.0001419,53.2198,346.1155,89.9283,270.1872,7.0965e-05,8.42e-06,0.0,0 STARLINK-3902,1 52487U 22049AN  24092.01221618  .00000842  00000-0  70965-4 0  9996,2 52487  53.2198 346.1155 0001419  89.9283 270.1872 15.08841595106791,6917.876,95.437,540.722,538.759,0.0
52487.0,STARLINK-3902,PAYLOAD,2024-04-02 00:08:21,15.08852114,0.0001506,53.2187,341.6535,61.6996,298.4148,0.00014672,2.049e-05,0.0,0 STARLINK-3902,1 52487U 22049AN  24093.00580644  .00002049  00000-0  14672-3 0  9996,2 52487  53.2187 341.6535 0001506  61.6996 298.4148 15.08852114105861,6917.843,95.437,540.75,538.667,0.0
52487.0,STARLINK-3902,PAYLOAD,2024-04-02 22:23:46,15.08838454,0.0001355,53.2193,337.4933,85.1475,274.9672,2.3476e-05,8.6e-07,0.0,0 STARLINK-3902,1 52487U 22049AN  24093.93317647  .00000086  00000-0  23476-4 0  9991,2 52487  53.2193 337.4933 0001355  85.1475 274.9672 15.08838454107086,6917.885,95.438,540.687,538.813,0.0
52487.0,STARLINK-3902,PAYLOAD,2024-04-03 09:31:28,15.08836982,0.0001182,53.2186,335.4117,87.6747,272.4381,-4.701e-05,-1.036e-05,0.0,0 STARLINK-3902,1 52487U 22049AN  24094.39685896 -.00001036  00000-0 -47010-4 0  9994,2 52487  53.2186 335.4117 0001182  87.6747 272.4381 15.08836982107159,6917.89,95.438,540.572,538.937,0.0
52487.0,STARLINK-3902,PAYLOAD,2024-04-03 22:14:33,15.0884234,0.0001267,53.2184,333.0326,75.3423,284.7709,-0.00012319,-2.248e-05,0.0,0 STARLINK-3902,1 52487U 22049AN  24094.92677954 -.00002248  00000-0 -12319-3 0  9998,2 52487  53.2184 333.0326 0001267  75.3423 284.7709 15.08842340107236,6917.873,95.437,540.615,538.862,0.0
52487.0,STARLINK-3902,PAYLOAD,2024-04-04 09:22:14,15.08850289,0.0001288,53.218,330.949,86.7381,273.3759,-6.7552e-05,-1.363e-05,0.0,0 STARLINK-3902,1 52487U 22049AN  24095.39044931 -.00001363  00000-0 -67552-4 0  9990,2 52487  53.2180 330.9490 0001288  86.7381 273.3759 15.08850289106220,6917.849,95.437,540.605,538.823,0.0
52487.0,STARLINK-3902,PAYLOAD,2024-04-04 22:05:20,15.08834972,0.0001514,53.2194,328.5701,92.1694,267.9471,9.9552e-05,1.297e-05,0.0,0 STARLINK-3902,1 52487U 22049AN  24095.92037738  .00001297  00000-0  99552-4 0  9995,2 52487  53.2194 328.5701 0001514  92.1694 267.9471 15.08834972106303,6917.896,95.438,540.808,538.713,0.0
52487.0,STARLINK-3902,PAYLOAD,2024-04-05 01:16:06,15.08835499,0.0001499,53.2193,327.9753,91.864,268.2523,9.7483e-05,1.264e-05,0.0,0 STARLINK-3902,1 52487U 22049AN  24096.05285737  .00001264  00000-0  97483-4 0  9999,2 52487  53.2193 327.9753 0001499  91.8640 268.2523 15.08835499107400,6917.894,95.438,540.796,538.722,0.0
52487.0,STARLINK-3902,PAYLOAD,2024-04-05 21:56:08,15.08813619,0.0001352,53.2193,324.1097,100.2924,259.8221,0.00033664,5.07e-05,0.0,0 STARLINK-3902,1 52487U 22049AN  24096.91398203  .00005070  00000-0  33664-3 0  9996,2 52487  53.2193 324.1097 0001352 100.2924 259.8221 15.08813619107533,6917.961,95.439,540.761,538.891,0.0
52487.0,STARLINK-3902,PAYLOAD,2024-04-06 01:06:54,15.08792537,0.0001574,53.2192,323.5147,103.9115,256.2052,0.00062695,9.691e-05,0.0,0 STARLINK-3902,1 52487U 22049AN  24097.04646703  .00009691  00000-0  62695-3 0  9991,2 52487  53.2192 323.5147 0001574 103.9115 256.2052 15.08792537106479,6918.025,95.441,540.979,538.802,0.0
52487.0,STARLINK-3902,PAYLOAD,2024-04-06 21:46:55,15.08832335,0.0001473,53.2188,319.6489,93.697,266.419,-1.3433e-06,-3.09e-06,0.0,0 STARLINK-3902,1 52487U 22049AN  24097.90758630 -.00000309  00000-0 -13433-5 0  9996,2 52487  53.2188 319.6489 0001473  93.6970 266.4190 15.08832335106603,6917.904,95.438,540.788,538.75,0.0
52487.0,STARLINK-3902,PAYLOAD,2024-04-07 13:40:46,15.08834013,0.0001378,53.2183,316.676,92.7438,267.3712,-3.8131e-06,-3.49e-06,0.0,0 STARLINK-3902,1 52487U 22049AN  24098.56998795 -.00000349  00000-0 -38131-5 0  9993,2 52487  53.2183 316.6760 0001378  92.7438 267.3712 15.08834013107785,6917.899,95.438,540.717,538.81,0.0
52487.0,STARLINK-3902,PAYLOAD,2024-04-07 21:37:42,15.08835325,0.0001366,53.218,315.1892,93.0856,267.0292,2.9682e-05,1.84e-06,0.0,0 STARLINK-3902,1 52487U 22049AN  24098.90118680  .00000184  00000-0  29682-4 0  9993,2 52487  53.2180 315.1892 0001366  93.0856 267.0292 15.08835325107830,6917.895,95.438,540.705,538.815,0.0
52487.0,STARLINK-3902,PAYLOAD,2024-04-08 07:10:00,15.08844934,0.000145,53.2203,313.406,103.4589,256.6564,6.2154e-05,7.01e-06,0.0,0 STARLINK-3902,1 52487U 22049AN  24099.29862017  .00000701  00000-0  62154-4 0  9992,2 52487  53.2203 313.4060 0001450 103.4589 256.6564 15.08844934106816,6917.865,95.437,540.733,538.727,0.0
52487.0,STARLINK-3902,PAYLOAD,2024-04-08 23:03:52,15.08835387,0.0001331,53.2184,310.4321,92.8972,267.2173,5.2299e-05,5.44e-06,0.0,0 STARLINK-3902,1 52487U 22049AN  24099.96102894  .00000544  00000-0  52299-4 0  9990,2 52487  53.2184 310.4321 0001331  92.8972 267.2173 15.08835387107992,6917.894,95.438,540.68,538.839,0.0
52487.0,STARLINK-3902,PAYLOAD,2024-04-10 13:13:08,15.08821794,0.0001402,53.2153,303.2953,90.4302,269.6851,0.0002534,3.745e-05,0.0,0 STARLINK-3902,1 52487U 22049AN  24101.55079069  .00003745  00000-0  25340-3 0  9998,2 52487  53.2153 303.2953 0001402  90.4302 269.6851 15.08821794107153,6917.936,95.439,540.771,538.831,0.0
